CCSDS_OMM_VERS = 2.0
CREATION_DATE  = 
ORIGINATOR     = 

OBJECT_NAME    = STARLINK-36348
OBJECT_ID      = 2026-034B
CENTER_NAME    = EARTH
REF_FRAME      = TEME
TIME_SYSTEM    = UTC
MEAN_ELEMENT_THEORY = SGP/SGP4

EPOCH          = 2026-02-25T16:00:01.999584
MEAN_MOTION    = 15.92989581
ECCENTRICITY   = .0000561
INCLINATION    = 53.1525
RA_OF_ASC_NODE = 271.7704
ARG_OF_PERICENTER = 90.5829
MEAN_ANOMALY   = 250.8151

EPHEMERIS_TYPE = 0
CLASSIFICATION_TYPE = U
NORAD_CAT_ID   = 67851
ELEMENT_SET_NO = 999
REV_AT_EPOCH   = 193
BSTAR          = -.47789E-2
MEAN_MOTION_DOT = -.1700771E-1
MEAN_MOTION_DDOT = .81365E-3

CCSDS_OMM_VERS = 2.0
CREATION_DATE  = 
ORIGINATOR     = 

OBJECT_NAME    = STARLINK-36276
OBJECT_ID      = 2026-034C
CENTER_NAME    = EARTH
REF_FRAME      = TEME
TIME_SYSTEM    = UTC
MEAN_ELEMENT_THEORY = SGP/SGP4

EPOCH          = 2026-02-25T16:00:01.999584
MEAN_MOTION    = 15.93152017
ECCENTRICITY   = .0000529
INCLINATION    = 53.1524
RA_OF_ASC_NODE = 271.7667
ARG_OF_PERICENTER = 98.5524
MEAN_ANOMALY   = 244.5044

EPHEMERIS_TYPE = 0
CLASSIFICATION_TYPE = U
NORAD_CAT_ID   = 67852
ELEMENT_SET_NO = 999
REV_AT_EPOCH   = 193
BSTAR          = -.47178E-2
MEAN_MOTION_DOT = -.1693531E-1
MEAN_MOTION_DDOT = .80859E-3

CCSDS_OMM_VERS = 2.0
CREATION_DATE  = 
ORIGINATOR     = 

OBJECT_NAME    = STARLINK-36785
OBJECT_ID      = 2026-034D
CENTER_NAME    = EARTH
REF_FRAME      = TEME
TIME_SYSTEM    = UTC
MEAN_ELEMENT_THEORY = SGP/SGP4

EPOCH          = 2026-02-25T16:00:01.999584
MEAN_MOTION    = 15.93300150
ECCENTRICITY   = .0000589
INCLINATION    = 53.1524
RA_OF_ASC_NODE = 271.7634
ARG_OF_PERICENTER = 90.7435
MEAN_ANOMALY   = 253.8313

EPHEMERIS_TYPE = 0
CLASSIFICATION_TYPE = U
NORAD_CAT_ID   = 67853
ELEMENT_SET_NO = 999
REV_AT_EPOCH   = 193
BSTAR          = -.46268E-2
MEAN_MOTION_DOT = -.1674109E-1
MEAN_MOTION_DDOT = .79277E-3

CCSDS_OMM_VERS = 2.0
CREATION_DATE  = 
ORIGINATOR     = 

OBJECT_NAME    = STARLINK-36608
OBJECT_ID      = 2026-034E
CENTER_NAME    = EARTH
REF_FRAME      = TEME
TIME_SYSTEM    = UTC
MEAN_ELEMENT_THEORY = SGP/SGP4

EPOCH          = 2026-02-25T16:00:01.999584
MEAN_MOTION    = 15.93457452
ECCENTRICITY   = .0000394
INCLINATION    = 53.1524
RA_OF_ASC_NODE = 271.7601
ARG_OF_PERICENTER = 94.6030
MEAN_ANOMALY   = 251.6734

EPHEMERIS_TYPE = 0
CLASSIFICATION_TYPE = U
NORAD_CAT_ID   = 67854
ELEMENT_SET_NO = 999
REV_AT_EPOCH   = 193
BSTAR          = -.45665E-2
MEAN_MOTION_DOT = -.1666142E-1
MEAN_MOTION_DDOT = .78707E-3

CCSDS_OMM_VERS = 2.0
CREATION_DATE  = 
ORIGINATOR     = 

OBJECT_NAME    = STARLINK-36838
OBJECT_ID      = 2026-034F
CENTER_NAME    = EARTH
REF_FRAME      = TEME
TIME_SYSTEM    = UTC
MEAN_ELEMENT_THEORY = SGP/SGP4

EPOCH          = 2026-02-25T16:00:01.999584
MEAN_MOTION    = 15.93612064
ECCENTRICITY   = .000045
INCLINATION    = 53.1525
RA_OF_ASC_NODE = 271.7568
ARG_OF_PERICENTER = 83.7093
MEAN_ANOMALY   = 264.1724

EPHEMERIS_TYPE = 0
CLASSIFICATION_TYPE = U
NORAD_CAT_ID   = 67855
ELEMENT_SET_NO = 999
REV_AT_EPOCH   = 193
BSTAR          = -.45055E-2
MEAN_MOTION_DOT = -.1657478E-1
MEAN_MOTION_DDOT = .78077E-3

CCSDS_OMM_VERS = 2.0
CREATION_DATE  = 
ORIGINATOR     = 

OBJECT_NAME    = STARLINK-36843
OBJECT_ID      = 2026-034G
CENTER_NAME    = EARTH
REF_FRAME      = TEME
TIME_SYSTEM    = UTC
MEAN_ELEMENT_THEORY = SGP/SGP4

EPOCH          = 2026-02-25T16:00:01.999584
MEAN_MOTION    = 15.93924330
ECCENTRICITY   = .000047
INCLINATION    = 53.1525
RA_OF_ASC_NODE = 271.7496
ARG_OF_PERICENTER = 85.0714
MEAN_ANOMALY   = 266.2292

EPHEMERIS_TYPE = 0
CLASSIFICATION_TYPE = U
NORAD_CAT_ID   = 67856
ELEMENT_SET_NO = 999
REV_AT_EPOCH   = 193
BSTAR          = -.44019E-2
MEAN_MOTION_DOT = -.1646512E-1
MEAN_MOTION_DDOT = .77371E-3

CCSDS_OMM_VERS = 2.0
CREATION_DATE  = 
ORIGINATOR     = 

OBJECT_NAME    = STARLINK-36828
OBJECT_ID      = 2026-034H
CENTER_NAME    = EARTH
REF_FRAME      = TEME
TIME_SYSTEM    = UTC
MEAN_ELEMENT_THEORY = SGP/SGP4

EPOCH          = 2026-02-25T16:00:01.999584
MEAN_MOTION    = 15.93769957
ECCENTRICITY   = .0000505
INCLINATION    = 53.1525
RA_OF_ASC_NODE = 271.7534
ARG_OF_PERICENTER = 83.5915
MEAN_ANOMALY   = 266.0269

EPHEMERIS_TYPE = 0
CLASSIFICATION_TYPE = U
NORAD_CAT_ID   = 67857
ELEMENT_SET_NO = 999
REV_AT_EPOCH   = 193
BSTAR          = -.44527E-2
MEAN_MOTION_DOT = -.1651871E-1
MEAN_MOTION_DDOT = .77714E-3

CCSDS_OMM_VERS = 2.0
CREATION_DATE  = 
ORIGINATOR     = 

OBJECT_NAME    = STARLINK-36837
OBJECT_ID      = 2026-034J
CENTER_NAME    = EARTH
REF_FRAME      = TEME
TIME_SYSTEM    = UTC
MEAN_ELEMENT_THEORY = SGP/SGP4

EPOCH          = 2026-02-25T16:00:01.999584
MEAN_MOTION    = 15.94071106
ECCENTRICITY   = .0000486
INCLINATION    = 53.1524
RA_OF_ASC_NODE = 271.7464
ARG_OF_PERICENTER = 82.2839
MEAN_ANOMALY   = 270.5640

EPHEMERIS_TYPE = 0
CLASSIFICATION_TYPE = U
NORAD_CAT_ID   = 67858
ELEMENT_SET_NO = 999
REV_AT_EPOCH   = 193
BSTAR          = -.43405E-2
MEAN_MOTION_DOT = -.1636402E-1
MEAN_MOTION_DDOT = .76613E-3

CCSDS_OMM_VERS = 2.0
CREATION_DATE  = 
ORIGINATOR     = 

OBJECT_NAME    = STARLINK-36393
OBJECT_ID      = 2026-034K
CENTER_NAME    = EARTH
REF_FRAME      = TEME
TIME_SYSTEM    = UTC
MEAN_ELEMENT_THEORY = SGP/SGP4

EPOCH          = 2026-02-25T16:00:01.999584
MEAN_MOTION    = 15.94219601
ECCENTRICITY   = .0000537
INCLINATION    = 53.1523
RA_OF_ASC_NODE = 271.7427
ARG_OF_PERICENTER = 73.6081
MEAN_ANOMALY   = 280.9416

EPHEMERIS_TYPE = 0
CLASSIFICATION_TYPE = U
NORAD_CAT_ID   = 67859
ELEMENT_SET_NO = 999
REV_AT_EPOCH   = 193
BSTAR          = -.42796E-2
MEAN_MOTION_DOT = -.1626373E-1
MEAN_MOTION_DDOT = .75865E-3

CCSDS_OMM_VERS = 2.0
CREATION_DATE  = 
ORIGINATOR     = 

OBJECT_NAME    = STARLINK-35873
OBJECT_ID      = 2026-034L
CENTER_NAME    = EARTH
REF_FRAME      = TEME
TIME_SYSTEM    = UTC
MEAN_ELEMENT_THEORY = SGP/SGP4

EPOCH          = 2026-02-25T16:00:01.999584
MEAN_MOTION    = 15.94360019
ECCENTRICITY   = .0000523
INCLINATION    = 53.1523
RA_OF_ASC_NODE = 271.7399
ARG_OF_PERICENTER = 97.6189
MEAN_ANOMALY   = 258.3721

EPHEMERIS_TYPE = 0
CLASSIFICATION_TYPE = U
NORAD_CAT_ID   = 67860
ELEMENT_SET_NO = 999
REV_AT_EPOCH   = 207
BSTAR          = -.42247E-2
MEAN_MOTION_DOT = -.1617648E-1
MEAN_MOTION_DDOT = .75225E-3

CCSDS_OMM_VERS = 2.0
CREATION_DATE  = 
ORIGINATOR     = 

OBJECT_NAME    = STARLINK-36325
OBJECT_ID      = 2026-034M
CENTER_NAME    = EARTH
REF_FRAME      = TEME
TIME_SYSTEM    = UTC
MEAN_ELEMENT_THEORY = SGP/SGP4

EPOCH          = 2026-02-25T16:00:01.999584
MEAN_MOTION    = 15.94507661
ECCENTRICITY   = .0000526
INCLINATION    = 53.1521
RA_OF_ASC_NODE = 271.7363
ARG_OF_PERICENTER = 97.7034
MEAN_ANOMALY   = 259.9210

EPHEMERIS_TYPE = 0
CLASSIFICATION_TYPE = U
NORAD_CAT_ID   = 67861
ELEMENT_SET_NO = 999
REV_AT_EPOCH   = 193
BSTAR          = -.4178E-2
MEAN_MOTION_DOT = -.1612501E-1
MEAN_MOTION_DDOT = .74898E-3

CCSDS_OMM_VERS = 2.0
CREATION_DATE  = 
ORIGINATOR     = 

OBJECT_NAME    = STARLINK-36332
OBJECT_ID      = 2026-034N
CENTER_NAME    = EARTH
REF_FRAME      = TEME
TIME_SYSTEM    = UTC
MEAN_ELEMENT_THEORY = SGP/SGP4

EPOCH          = 2026-02-25T16:00:01.999584
MEAN_MOTION    = 15.94648155
ECCENTRICITY   = .0000529
INCLINATION    = 53.1524
RA_OF_ASC_NODE = 271.7331
ARG_OF_PERICENTER = 85.9124
MEAN_ANOMALY   = 273.2582

EPHEMERIS_TYPE = 0
CLASSIFICATION_TYPE = U
NORAD_CAT_ID   = 67862
ELEMENT_SET_NO = 999
REV_AT_EPOCH   = 193
BSTAR          = -.41201E-2
MEAN_MOTION_DOT = -.1602301E-1
MEAN_MOTION_DDOT = .74135E-3

