STARLINK-36348          
1 67851U 26034B   26056.66668981 -.01700771  81365-3 -47789-2 0  9999
2 67851  53.1525 271.7704 0000561  90.5829 250.8151 15.92989581  1935
STARLINK-36276          
1 67852U 26034C   26056.66668981 -.01693531  80859-3 -47178-2 0  9994
2 67852  53.1524 271.7667 0000529  98.5524 244.5044 15.93152017  1935
STARLINK-36785          
1 67853U 26034D   26056.66668981 -.01674109  79277-3 -46268-2 0  9996
2 67853  53.1524 271.7634 0000589  90.7435 253.8313 15.93300150  1936
STARLINK-36608          
1 67854U 26034E   26056.66668981 -.01666142  78707-3 -45665-2 0  9992
2 67854  53.1524 271.7601 0000394  94.6030 251.6734 15.93457452  1930
STARLINK-36838          
1 67855U 26034F   26056.66668981 -.01657478  78077-3 -45055-2 0  9998
2 67855  53.1525 271.7568 0000450  83.7093 264.1724 15.93612064  1935
STARLINK-36843          
1 67856U 26034G   26056.66668981 -.01646512  77371-3 -44019-2 0  9991
2 67856  53.1525 271.7496 0000470  85.0714 266.2292 15.93924330  1938
STARLINK-36828          
1 67857U 26034H   26056.66668981 -.01651871  77714-3 -44527-2 0  9991
2 67857  53.1525 271.7534 0000505  83.5915 266.0269 15.93769957  1931
STARLINK-36837          
1 67858U 26034J   26056.66668981 -.01636402  76613-3 -43405-2 0  9996
2 67858  53.1524 271.7464 0000486  82.2839 270.5640 15.94071106  1938
STARLINK-36393          
1 67859U 26034K   26056.66668981 -.01626373  75865-3 -42796-2 0  9993
2 67859  53.1523 271.7427 0000537  73.6081 280.9416 15.94219601  1937
STARLINK-35873          
1 67860U 26034L   26056.66668981 -.01617648  75225-3 -42247-2 0  9991
2 67860  53.1523 271.7399 0000523  97.6189 258.3721 15.94360019  2071
STARLINK-36325          
1 67861U 26034M   26056.66668981 -.01612501  74898-3 -41780-2 0  9991
2 67861  53.1521 271.7363 0000526  97.7034 259.9210 15.94507661  1934
STARLINK-36332          
1 67862U 26034N   26056.66668981 -.01602301  74135-3 -41201-2 0  9991
2 67862  53.1524 271.7331 0000529  85.9124 273.2582 15.94648155  1930
